OBJECT_NAME,OBJECT_ID,EPOCH,MEAN_MOTION,ECCENTRICITY,INCLINATION,RA_OF_ASC_NODE,ARG_OF_PERICENTER,MEAN_ANOMALY,EPHEMERIS_TYPE,CLASSIFICATION_TYPE,NORAD_CAT_ID,ELEMENT_SET_NO,REV_AT_EPOCH,BSTAR,MEAN_MOTION_DOT,MEAN_MOTION_DDOT
UMBRA-09,2024-149CB,2026-06-27T05:13:24.751776,15.18329921,.00011488,97.6973,265.5961,238.6746,121.4375,0,U,60541,999,10224,.63817295E-3,.13042E-3,0
QPS-SAR-8 (AMATERU-IV),2024-149CC,2026-06-27T04:07:56.148096,15.04227149,.00041591,97.6664,257.2377,85.3484,274.8216,0,U,60542,999,10177,.48744744E-3,.6718E-4,0
ARCTIC WEATHER SATELLITE,2024-149CD,2026-06-27T07:05:39.238656,14.89797603,.00036597,97.6799,248.4723,85.1359,275.0276,0,U,60543,999,10080,.91729197E-4,.826E-5,0
CAPELLA-15 (ACADIA-5),2024-149CE,2026-06-27T05:53:38.452416,14.92382424,.00042395,97.6775,250.8975,47.2614,312.8961,0,U,60544,999,10135,.36899602E-3,.3722E-4,0
HAWK-10B,2024-149CF,2026-06-27T03:10:08.245632,14.96539240,.00064105,97.6809,253.2178,66.4475,293.7419,0,U,60545,999,10147,.12182826E-3,.1328E-4,0
ICEYE-X39,2024-149CG,2026-06-27T03:36:38.604384,14.99953316,.00063544,97.6763,255.0380,93.1643,267.0307,0,U,60546,999,10161,.29845004E-3,.3649E-4,0
UMBRA-10,2024-149CH,2026-06-27T05:12:46.652832,15.18335089,.00004331,97.6982,265.6240,162.0682,198.0566,0,U,60547,999,10225,.82786355E-3,.16951E-3,0
ICEYE-X33,2024-149CJ,2026-06-27T04:03:51.275808,15.00911243,.00035317,97.7453,257.2786,4.3318,355.7936,0,U,60548,999,10170,.39325081E-3,.4949E-4,0
ICEYE-X40,2024-149CK,2026-06-27T04:31:56.196768,14.97970576,.00057363,97.6813,254.5246,52.3488,307.8254,0,U,60549,999,10157,.10276891E-3,.1155E-4,0
SATELIOT_1,2024-149CL,2026-06-27T04:17:57.995808,14.98110438,.00079101,97.6758,253.9119,49.7764,310.4149,0,U,60550,999,10156,.14455485E-3,.1654E-4,0
BRO-14,2024-149CM,2026-06-27T03:50:38.872032,14.96200249,.00081756,97.6875,253.7587,70.8513,289.3593,0,U,60551,999,10148,.15872891E-3,.1733E-4,0
SATELIOT_3,2024-149CN,2026-06-27T05:19:27.419232,14.98092733,.00061407,97.6818,254.7528,63.9464,296.2390,0,U,60552,999,10158,.22087238E-3,.2557E-4,0
BRO-15,2024-149CP,2026-06-27T05:01:49.979136,14.96176770,.0009073,97.6805,253.4005,61.5980,298.6155,0,U,60553,999,10150,.23695229E-3,.2614E-4,0
UM5-RIBAT,2024-149CQ,2026-06-27T04:54:22.533408,15.01128067,.00027559,97.6628,255.8694,45.2909,314.8539,0,U,60554,999,10169,.25896212E-3,.3257E-4,0
UM5-EOSAT,2024-149CR,2026-06-26T18:25:44.832864,15.01603700,.00091184,97.6745,256.3923,86.2337,273.9930,0,U,60555,999,10165,.32830092E-3,.4201E-4,0
LASARSAT,2024-247Q,2026-06-27T05:53:43.342656,15.46939877,.00071279,44.9725,205.6685,32.7505,327.3826,0,U,62391,999,8487,.61600853E-3,.31535E-3,0
CROCUBE,2024-247T,2026-06-26T18:42:28.991808,15.48873131,.00069271,44.9695,205.4645,34.5174,325.6166,0,U,62394,999,8483,.64439449E-3,.35343E-3,0
TEVEL2-4,2025-052D,2026-06-27T05:20:48.947136,15.34955968,.00048196,97.3900,74.6325,85.3074,274.8720,0,U,63213,999,7165,.58985118E-3,.19955E-3,0
TEVEL2-5,2025-052E,2026-06-27T05:51:58.964544,15.34779098,.00048049,97.3898,74.5989,85.8149,274.3643,0,U,63214,999,7165,.60144959E-3,.20235E-3,0
TEVEL2-6,2025-052F,2026-06-27T06:10:04.123488,15.34743866,.00046434,97.3903,74.5963,86.9832,273.1942,0,U,63215,999,7165,.60477859E-3,.20324E-3,0
TEVEL2-1,2025-052H,2026-06-27T05:23:02.428224,15.34194637,.00049956,97.3871,74.1759,94.4509,265.7304,0,U,63217,999,7163,.5745837E-3,.1897E-3,0
TEVEL2-3,2025-052J,2026-06-27T05:14:47.557536,15.34253406,.00048586,97.3877,74.1933,95.2492,264.9305,0,U,63218,999,7163,.58899626E-3,.19485E-3,0
TEVEL2-2,2025-052K,2026-06-27T05:23:24.260640,15.34205693,.00050086,97.3873,74.1789,94.7391,265.4424,0,U,63219,999,7163,.58752058E-3,.19407E-3,0
TEVEL2-9,2025-052AD,2026-06-27T05:09:40.576608,15.32198035,.00082938,97.3934,73.5229,104.2052,256.0111,0,U,63237,999,7156,.57551268E-3,.17853E-3,0
TEVEL2-7,2025-052AE,2026-06-27T04:37:19.728480,15.31893747,.00083603,97.3939,73.4122,104.5251,255.6918,0,U,63238,999,7155,.57189488E-3,.17572E-3,0
TEVEL2-8,2025-052AF,2026-06-26T05:18:23.535072,15.31844407,.0008385,97.3937,72.4192,107.6731,252.5427,0,U,63239,999,7140,.58597E-3,.1798E-3,0
FORESAIL-1 PRIME,2025-276DS,2026-06-27T03:25:56.907264,15.18788261,.00038901,97.4203,251.2317,83.4614,276.7063,0,U,66778,999,3191,.26439553E-3,.5433E-4,0
